{"type":"FeatureCollection","features":[{"type":"Feature","geometry":{"type":"Polygon","coordinates":[[[-86.8776,35.7403],[-86.9387,35.7622],[-86.9292,35.7782],[-86.9417,35.7796],[-86.9443,35.7727],[-86.9522,35.7735],[-86.9507,35.7816],[-86.9625,35.7829],[-86.9606,35.7753],[-86.9695,35.7717],[-86.9969,35.7805],[-87.004,35.779],[-87.0356,35.7962],[-87.0397,35.7946],[-87.2151,35.8507],[-87.2341,35.7247],[-87.2654,35.719],[-87.2509,35.7115],[-87.2506,35.7067],[-87.2587,35.6976],[-87.2945,35.6955],[-87.3194,35.6742],[-87.3179,35.6699],[-87.3241,35.6587],[-87.3392,35.6591],[-87.3316,35.6563],[-87.3327,35.6348],[-87.3529,35.6179],[-87.3523,35.5846],[-87.3385,35.5844],[-87.3384,35.5727],[-87.3149,35.5676],[-87.3177,35.5491],[-87.2899,35.548],[-87.2906,35.5425],[-87.286,35.5422],[-87.2824,35.5049],[-87.2694,35.5059],[-87.2705,35.5007],[-87.279,35.5015],[-87.2836,35.4979],[-87.2766,35.4919],[-87.2797,35.4839],[-87.2748,35.4834],[-87.2768,35.4701],[-87.2815,35.4587],[-87.289,35.4594],[-87.2952,35.4421],[-87.2279,35.4293],[-87.2263,35.4405],[-87.1932,35.4309],[-87.1598,35.4355],[-87.1499,35.4469],[-87.1225,35.4561],[-87.1092,35.449],[-87.1013,35.4497],[-87.1018,35.4457],[-87.0945,35.4418],[-87.0718,35.4404],[-87.059,35.4313],[-87.0403,35.4282],[-87.0301,35.4322],[-87.0195,35.424],[-87.0175,35.4158],[-86.9982,35.4094],[-86.9867,35.4094],[-86.9844,35.4201],[-86.9682,35.4121],[-86.9607,35.413],[-86.955,35.4515],[-86.9364,35.4591],[-86.9298,35.4545],[-86.919,35.4563],[-86.9245,35.4637],[-86.8806,35.494],[-86.8756,35.5213],[-86.8706,35.5208],[-86.8713,35.5025],[-86.8495,35.5256],[-86.8381,35.5508],[-86.8421,35.551],[-86.8382,35.5594],[-86.8417,35.5597],[-86.8405,35.5673],[-86.8344,35.5668],[-86.8364,35.5755],[-86.8299,35.5741],[-86.8275,35.5808],[-86.8408,35.5832],[-86.8399,35.5914],[-86.8284,35.5962],[-86.8224,35.6086],[-86.8119,35.6964],[-86.8032,35.6994],[-86.8028,35.692],[-86.7969,35.6915],[-86.7944,35.7022],[-86.782,35.7066],[-86.7979,35.708],[-86.7974,35.7114],[-86.8113,35.7159],[-86.8119,35.7205],[-86.8425,35.7275],[-86.8452,35.7251],[-86.8539,35.7343],[-86.8776,35.7403]]]},"properties":{"NAME":"Maury County","GEOID":"47119","STATE":"47","COUNTY":"119"}},{"type":"Feature","geometry":{"type":"Polygon","coordinates":[[[-93.463,42.2093],[-93.6984,42.2093],[-93.698,41.8634],[-93.2319,41.8627],[-93.2317,42.2089],[-93.463,42.2093]]]},"properties":{"NAME":"Story County","GEOID":"19169","STATE":"19","COUNTY":"169"}},{"type":"Feature","geometry":{"type":"Polygon","coordinates":[[[-75.9724,39.9875],[-75.9359,40.0375],[-75.9361,40.0786],[-75.943,40.1093],[-75.8734,40.1371],[-76.1512,40.316],[-76.3077,40.255],[-76.4354,40.2382],[-76.5691,40.1949],[-76.5807,40.1947],[-76.586,40.1895],[-76.6065,40.19],[-76.6384,40.1667],[-76.6662,40.1632],[-76.6772,40.1489],[-76.6833,40.1518],[-76.6901,40.1481],[-76.691,40.1567],[-76.6976,40.1565],[-76.6956,40.1516],[-76.6993,40.1453],[-76.7054,40.1434],[-76.7101,40.1371],[-76.7064,40.1353],[-76.7153,40.1322],[-76.7216,40.1201],[-76.6932,40.0988],[-76.6638,40.0632],[-76.5731,40.0458],[-76.534,40.051],[-76.5297,40.0309],[-76.5006,40.0006],[-76.4954,39.9761],[-76.4777,39.9498],[-76.4049,39.9152],[-76.3913,39.9126],[-76.3796,39.8882],[-76.3817,39.8786],[-76.3777,39.8667],[-76.352,39.8489],[-76.3505,39.8376],[-76.3334,39.8177],[-76.3157,39.81],[-76.2895,39.7844],[-76.2774,39.7777],[-76.2675,39.7594],[-76.2422,39.7329],[-76.2398,39.7213],[-76.1355,39.7211],[-76.134,39.7272],[-76.1192,39.7234],[-76.1206,39.7354],[-76.1139,39.7372],[-76.1084,39.7346],[-76.1112,39.7283],[-76.1062,39.7242],[-76.0964,39.7293],[-76.0925,39.734],[-76.102,39.7395],[-76.1005,39.7455],[-76.094,39.7427],[-76.0865,39.746],[-76.0819,39.7614],[-76.0669,39.7598],[-76.0625,39.7647],[-76.0646,39.7712],[-76.0584,39.7799],[-76.0501,39.7832],[-76.0412,39.7971],[-76.0498,39.8027],[-76.039,39.8012],[-76.0349,39.8123],[-76.0296,39.8127],[-76.0377,39.8268],[-76.0276,39.824],[-76.0228,39.8308],[-76.0165,39.8313],[-76.0222,39.8508],[-76.0188,39.8541],[-76.0075,39.8524],[-76.0024,39.8744],[-75.9916,39.8687],[-75.9868,39.8736],[-75.9924,39.8822],[-75.9867,39.8929],[-75.995,39.8985],[-75.9974,39.9283],[-75.9915,39.9267],[-75.9851,39.9321],[-75.9816,39.9295],[-75.981,39.9338],[-75.9946,39.9526],[-75.9724,39.9875]]]},"properties":{"NAME":"Lancaster County","GEOID":"42071","STATE":"42","COUNTY":"071"}},{"type":"Feature","geometry":{"type":"Polygon","coordinates":[[[-92.1986,39.2423],[-92.4302,39.2488],[-92.5133,39.0893],[-92.5652,38.9986],[-92.5621,38.9964],[-92.5639,38.9869],[-92.5576,38.9884],[-92.5565,38.9854],[-92.5702,38.9797],[-92.4777,38.9063],[-92.4743,38.9008],[-92.4796,38.8774],[-92.4567,38.8603],[-92.4399,38.8313],[-92.4216,38.8199],[-92.3941,38.8196],[-92.3843,38.8154],[-92.3796,38.8015],[-92.383,38.7897],[-92.3908,38.7806],[-92.4071,38.7726],[-92.4086,38.7582],[-92.3975,38.7405],[-92.3602,38.7301],[-92.3457,38.7177],[-92.3433,38.7051],[-92.3614,38.692],[-92.3609,38.6818],[-92.3393,38.6735],[-92.2934,38.6666],[-92.2758,38.6582],[-92.2622,38.6464],[-92.2515,38.6442],[-92.2294,38.646],[-92.2207,38.6432],[-92.2184,38.6886],[-92.226,38.6986],[-92.2157,38.7025],[-92.2168,38.7136],[-92.2121,38.7202],[-92.1924,38.7261],[-92.1942,38.7366],[-92.1818,38.7386],[-92.1861,38.748],[-92.176,38.7539],[-92.1721,38.7642],[-92.163,38.765],[-92.1623,38.7759],[-92.1678,38.777],[-92.1641,38.784],[-92.1581,38.7852],[-92.1601,38.7902],[-92.1555,38.7952],[-92.1583,38.8021],[-92.152,38.8038],[-92.1505,38.7975],[-92.1455,38.7961],[-92.151,38.806],[-92.1441,38.8064],[-92.1429,38.8131],[-92.1352,38.8139],[-92.1384,38.8178],[-92.1457,38.815],[-92.1428,38.8218],[-92.153,38.8266],[-92.1454,38.833],[-92.1505,38.8393],[-92.1403,38.8451],[-92.1485,38.8456],[-92.1454,38.8543],[-92.1542,38.8535],[-92.1478,38.8573],[-92.1493,38.8663],[-92.1625,38.8656],[-92.1561,38.8807],[-92.1485,38.8804],[-92.1481,38.8853],[-92.1554,38.8844],[-92.1588,38.8947],[-92.169,38.8966],[-92.1549,38.9157],[-92.1608,38.9256],[-92.1539,38.9242],[-92.1528,38.9467],[-92.1433,38.9678],[-92.1471,38.9782],[-92.1381,38.9853],[-92.1366,38.9997],[-92.1401,39.0007],[-92.1405,39.0068],[-92.1339,39.011],[-92.1302,39.0238],[-92.1408,39.0301],[-92.136,39.0324],[-92.1335,39.0447],[-92.1286,39.0478],[-92.1323,39.0515],[-92.1315,39.0645],[-92.1104,39.0642],[-92.1044,39.2398],[-92.1986,39.2423]]]},"properties":{"NAME":"Boone County","GEOID":"29019","STATE":"29","COUNTY":"019"}},{"type":"Feature","geometry":{"type":"Polygon","coordinates":[[[-81.5353,35.5684],[-80.96,35.547],[-80.9535,35.5539],[-80.957,35.5684],[-80.9532,35.5789],[-80.9336,35.5909],[-80.9433,35.6063],[-80.939,35.6129],[-80.9252,35.6203],[-80.9523,35.6425],[-80.9669,35.6713],[-80.9816,35.6818],[-80.9937,35.7013],[-81.0032,35.7092],[-81.0177,35.7127],[-81.0432,35.7074],[-81.0637,35.7126],[-81.0675,35.7376],[-81.0905,35.7573],[-81.0909,35.7672],[-81.1024,35.7683],[-81.1121,35.7794],[-81.1284,35.7894],[-81.1308,35.8032],[-81.1411,35.8122],[-81.1423,35.8274],[-81.1496,35.829],[-81.1763,35.823],[-81.2051,35.8228],[-81.2258,35.8095],[-81.2496,35.8157],[-81.2541,35.8088],[-81.2663,35.8047],[-81.2807,35.806],[-81.2981,35.7982],[-81.3091,35.8024],[-81.3159,35.7969],[-81.3461,35.794],[-81.3556,35.7803],[-81.3535,35.7693],[-81.364,35.7676],[-81.4329,35.6778],[-81.5068,35.608],[-81.5353,35.5684]]]},"properties":{"NAME":"Catawba County","GEOID":"37035","STATE":"37","COUNTY":"035"}},{"type":"Feature","geometry":{"type":"Polygon","coordinates":[[[-88.9195,40.2829],[-88.4604,40.2819],[-88.4595,40.6173],[-88.5745,40.6165],[-88.5752,40.6706],[-88.5824,40.6708],[-88.5843,40.7576],[-88.9869,40.7523],[-88.9847,40.665],[-89.0453,40.6639],[-89.0444,40.6274],[-89.1016,40.625],[-89.1011,40.6123],[-89.1342,40.6115],[-89.1338,40.5967],[-89.2694,40.5944],[-89.2627,40.2809],[-88.9195,40.2829]]]},"properties":{"NAME":"McLean County","GEOID":"17113","STATE":"17","COUNTY":"113"}},{"type":"Feature","geometry":{"type":"Polygon","coordinates":[[[-97.2632,37.9123],[-97.1525,37.9127],[-97.1531,38.1746],[-97.7018,38.1738],[-97.702,37.9113],[-97.2632,37.9123]]]},"properties":{"NAME":"Harvey County","GEOID":"20079","STATE":"20","COUNTY":"079"}},{"type":"Feature","geometry":{"type":"Polygon","coordinates":[[[-122.8976,44.7449],[-122.9337,44.7159],[-122.9576,44.721],[-122.9714,44.7104],[-122.9749,44.6981],[-122.9897,44.6935],[-122.9962,44.6957],[-122.9963,44.689],[-123.0063,44.6867],[-123.0187,44.6991],[-123.0138,44.7147],[-123.0189,44.7247],[-123.0348,44.7209],[-123.0424,44.7267],[-123.0411,44.7371],[-123.0608,44.738],[-123.0622,44.748],[-123.0789,44.7431],[-123.1001,44.7463],[-123.1129,44.7595],[-123.1194,44.758],[-123.1215,44.7516],[-123.1438,44.7489],[-123.1324,44.7412],[-123.1504,44.7276],[-123.146,44.7114],[-123.1213,44.6914],[-123.116,44.6763],[-123.0883,44.6742],[-123.0842,44.6653],[-123.0741,44.6584],[-123.0736,44.6505],[-123.1005,44.6398],[-123.1685,44.6357],[-123.1716,44.621],[-123.1818,44.619],[-123.1839,44.6092],[-123.1981,44.6028],[-123.197,44.5976],[-123.1842,44.5943],[-123.1848,44.5875],[-123.2231,44.5844],[-123.2484,44.5757],[-123.2603,44.5594],[-123.2602,44.5551],[-123.2421,44.5473],[-123.2525,44.527],[-123.2381,44.528],[-123.2245,44.5119],[-123.2126,44.505],[-123.2142,44.4894],[-123.221,44.4846],[-123.2137,44.4784],[-123.2165,44.4685],[-123.2113,44.4503],[-123.2053,44.444],[-123.2092,44.4352],[-123.228,44.4324],[-123.2194,44.4194],[-123.2198,44.4157],[-123.2294,44.4145],[-123.2236,44.3935],[-123.2452,44.3823],[-123.2366,44.3732],[-123.2242,44.3694],[-123.2189,44.361],[-123.2347,44.3574],[-123.2285,44.3426],[-123.2457,44.3321],[-123.2373,44.3289],[-123.2225,44.3307],[-123.2169,44.325],[-123.2162,44.3108],[-123.1933,44.3065],[-123.1898,44.2959],[-123.1934,44.2902],[-123.1799,44.2834],[-123.1751,44.2752],[-123.175,44.2595],[-123.1788,44.2516],[-123.1503,44.2266],[-123.1654,44.2001],[-122.9058,44.2007],[-122.904,44.2591],[-122.8655,44.259],[-122.8655,44.2873],[-122.8428,44.2811],[-122.8344,44.2834],[-122.823,44.2743],[-122.8144,44.2763],[-122.8072,44.2842],[-122.7768,44.2837],[-122.7627,44.2905],[-122.7498,44.2847],[-122.7311,44.2882],[-122.7203,44.2814],[-122.6994,44.28],[-122.6689,44.2689],[-122.6574,44.271],[-122.6468,44.2666],[-122.6453,44.254],[-122.64,44.2494],[-122.5935,44.2444],[-122.5754,44.2354],[-122.577,44.2279],[-122.5556,44.2309],[-122.5493,44.2355],[-122.5363,44.235],[-122.5282,44.2265],[-122.5136,44.2317],[-122.5037,44.2217],[-122.4785,44.2191],[-122.4659,44.2231],[-122.4484,44.2167],[-122.4349,44.2213],[-122.4251,44.2182],[-122.4047,44.2206],[-122.4048,44.2169],[-122.3846,44.2171],[-122.3846,44.211],[-122.3796,44.2094],[-122.3606,44.2119],[-122.353,44.2205],[-122.3403,44.2216],[-122.3273,44.2312],[-122.3257,44.2376],[-122.3324,44.2434],[-122.3272,44.2528],[-121.7994,44.2583],[-121.819,44.2618],[-121.8249,44.2829],[-121.8413,44.2857],[-121.8372,44.303],[-121.8408,44.3203],[-121.8376,44.3342],[-121.8439,44.3464],[-121.8368,44.357],[-121.846,44.3669],[-121.8419,44.3727],[-121.8468,44.4026],[-121.8459,44.4087],[-121.8409,44.4108],[-121.8456,44.4148],[-121.8476,44.4305],[-121.8411,44.4449],[-121.8475,44.4547],[-121.8496,44.4673],[-121.8441,44.4714],[-121.843,44.479],[-121.8494,44.4845],[-121.8469,44.4911],[-121.8231,44.5112],[-121.8092,44.5149],[-121.8161,44.5385],[-121.8033,44.5553],[-121.8001,44.5809],[-121.7939,44.5941],[-121.8008,44.6009],[-121.7986,44.6052],[-121.8023,44.6104],[-121.8116,44.6158],[-121.8081,44.6285],[-121.7979,44.6403],[-121.8018,44.6598],[-121.7996,44.6839],[-121.9643,44.6838],[-121.981,44.6938],[-122.001,44.6874],[-122.0176,44.6909],[-122.0334,44.6856],[-122.0458,44.6884],[-122.047,44.6923],[-122.0597,44.6975],[-122.0817,44.6987],[-122.1003,44.7072],[-122.1082,44.707],[-122.1429,44.7263],[-122.1518,44.7251],[-122.1563,44.7177],[-122.1797,44.707],[-122.1967,44.7032],[-122.1993,44.6962],[-122.2184,44.6932],[-122.2314,44.6985],[-122.248,44.7211],[-122.2719,44.7342],[-122.2767,44.7461],[-122.2898,44.7534],[-122.3195,44.7593],[-122.3347,44.7554],[-122.3698,44.7566],[-122.3791,44.7519],[-122.406,44.7551],[-122.4233,44.7514],[-122.4342,44.7561],[-122.4755,44.7519],[-122.4808,44.7558],[-122.5038,44.7497],[-122.5204,44.7539],[-122.5223,44.7642],[-122.5646,44.7681],[-122.5695,44.7746],[-122.5995,44.7782],[-122.6201,44.7892],[-122.6922,44.7754],[-122.7138,44.7802],[-122.7261,44.7932],[-122.7298,44.7895],[-122.746,44.7876],[-122.7842,44.7943],[-122.8025,44.7909],[-122.8268,44.771],[-122.8391,44.7706],[-122.8465,44.7745],[-122.8507,44.7616],[-122.8705,44.7578],[-122.8739,44.7513],[-122.8976,44.7449]]]},"properties":{"NAME":"Linn County","GEOID":"41043","STATE":"41","COUNTY":"043"}}]}